$$SOE
2461302.500000000, A.D. 2026-Sep-19 00:00:00.0000, 2.833674604049742E+08, 1.134888428761969E+08, -2.831016349300258E+06,
2461309.500000000, A.D. 2026-Sep-26 00:00:00.0000, 2.803779019477139E+08, 1.262971469155783E+08, -3.457917644335710E+06,
2461316.500000000, A.D. 2026-Oct-03 00:00:00.0000, 2.769203906535351E+08, 1.388947252962450E+08, -4.079051590459295E+06,
2461323.500000000, A.D. 2026-Oct-10 00:00:00.0000, 2.730108956012327E+08, 1.512656661607224E+08, -4.693531640643358E+06,
2461330.500000000, A.D. 2026-Oct-17 00:00:00.0000, 2.686656651819112E+08, 1.633952434096193E+08, -5.300524415935524E+06,
2461337.500000000, A.D. 2026-Oct-24 00:00:00.0000, 2.639011449781660E+08, 1.752698800461183E+08, -5.899248712504625E+06,
2461344.500000000, A.D. 2026-Oct-31 00:00:00.0000, 2.587339033203962E+08, 1.868771074290730E+08, -6.488974282484345E+06,
2461351.500000000, A.D. 2026-Nov-07 00:00:00.0000, 2.531805646386468E+08, 1.982055214441122E+08, -7.069020458828844E+06,
2461358.500000000, A.D. 2026-Nov-14 00:00:00.0000, 2.472577505146551E+08, 2.092447373258365E+08, -7.638754610760838E+06,
2461365.500000000, A.D. 2026-Nov-21 00:00:00.0000, 2.409820262724335E+08, 2.199853445688750E+08, -8.197590243620247E+06,
2461372.500000000, A.D. 2026-Nov-28 00:00:00.0000, 2.343698517386774E+08, 2.304188595934378E+08, -8.744984929034591E+06,
2461379.500000000, A.D. 2026-Dec-05 00:00:00.0000, 2.274375394155310E+08, 2.405376760781088E+08, -9.280438482081503E+06,
2461386.500000000, A.D. 2026-Dec-12 00:00:00.0000, 2.202012198211377E+08, 2.503350165324629E+08, -9.803491174040422E+06,
2461393.500000000, A.D. 2026-Dec-19 00:00:00.0000, 2.126768116818375E+08, 2.598048855003864E+08, -1.031372182967053E+07,
2461400.500000000, A.D. 2026-Dec-26 00:00:00.0000, 2.048799964061481E+08, 2.689420238442029E+08, -1.081074588565628E+07,
2461407.500000000, A.D. 2027-Jan-02 00:00:00.0000, 1.968261966977700E+08, 2.777418641755126E+08, -1.129421346672666E+07,
2461414.500000000, A.D. 2027-Jan-09 00:00:00.0000, 1.885305590202577E+08, 2.862004876551254E+08, -1.176380750131640E+07,
2461421.500000000, A.D. 2027-Jan-16 00:00:00.0000, 1.800079395628954E+08, 2.943145823250129E+08, -1.221924188963844E+07,
2461428.500000000, A.D. 2027-Jan-23 00:00:00.0000, 1.712728933891816E+08, 3.020814030447959E+08, -1.266025973985028E+07,
2461435.500000000, A.D. 2027-Jan-30 00:00:00.0000, 1.623396666139978E+08, 3.094987330614093E+08, -1.308663169983973E+07,
2461442.500000000, A.D. 2027-Feb-06 00:00:00.0000, 1.532221917174151E+08, 3.165648475988655E+08, -1.349815440084180E+07,
2461449.500000000, A.D. 2027-Feb-13 00:00:00.0000, 1.439340852446979E+08, 3.232784807067655E+08, -1.389464887511387E+07,
2461456.500000000, A.D. 2027-Feb-20 00:00:00.0000, 1.344886452578990E+08, 3.296387945658930E+08, -1.427595879750709E+07,
2461463.500000000, A.D. 2027-Feb-27 00:00:00.0000, 1.248988496816287E+08, 3.356453480168428E+08, -1.464194894171984E+07,
2461470.500000000, A.D. 2027-Mar-06 00:00:00.0000, 1.151773583409633E+08, 3.412980662082381E+08, -1.499250397225273E+07,
2461477.500000000, A.D. 2027-Mar-13 00:00:00.0000, 1.053365168930153E+08, 3.465972133657836E+08, -1.532752725825010E+07,
2461484.500000000, A.D. 2027-Mar-20 00:00:00.0000, 9.538836133885546E+07, 3.515433677890814E+08, -1.564693967269823E+07,
2461491.500000000, A.D. 2027-Mar-27 00:00:00.0000, 8.534462315287530E+07, 3.561373984654726E+08, -1.595067843885386E+07,
2461498.500000000, A.D. 2027-Apr-03 00:00:00.0000, 7.521673508578397E+07, 3.603804431874030E+08, -1.623869604468334E+07,
2461505.500000000, A.D. 2027-Apr-10 00:00:00.0000, 6.501583757189181E+07, 3.642738881273967E+08, -1.651095922702940E+07,
2461512.500000000, A.D. 2027-Apr-17 00:00:00.0000, 5.475278564672223E+07, 3.678193487854772E+08, -1.676744802643625E+07,
2461519.500000000, A.D. 2027-Apr-24 00:00:00.0000, 4.443815635131294E+07, 3.710186521753281E+08, -1.700815492251673E+07,
2461526.500000000, A.D. 2027-May-01 00:00:00.0000, 3.408225683177786E+07, 3.738738202060685E+08, -1.723308407248580E+07,
2461533.500000000, A.D. 2027-May-08 00:00:00.0000, 2.369513336149826E+07, 3.763870549397109E+08, -1.744225061746173E+07,
2461540.500000000, A.D. 2027-May-15 00:00:00.0000, 1.328657972145632E+07, 3.785607266113178E+08, -1.763567983926784E+07,
2461547.500000000, A.D. 2027-May-22 00:00:00.0000, 2.866143316242984E+06, 3.803973617486032E+08, -1.781340623308381E+07,
2461554.500000000, A.D. 2027-May-29 00:00:00.0000, -7.556867676006122E+06, 3.818996298554615E+08, -1.797547292007534E+07,
2461561.500000000, A.D. 2027-Jun-05 00:00:00.0000, -1.797337528190172E+07, 3.830703317366145E+08, -1.812193122340988E+07,
2461568.500000000, A.D. 2027-Jun-12 00:00:00.0000, -2.837452288313573E+07, 3.839123898380076E+08, -1.825284018630491E+07,
2461575.500000000, A.D. 2027-Jun-19 00:00:00.0000, -3.875166690330970E+07, 3.844288396105076E+08, -1.836826607550529E+07,
2461582.500000000, A.D. 2027-Jun-26 00:00:00.0000, -4.909636878111824E+07, 3.846228215830472E+08, -1.846828191474992E+07,
2461589.500000000, A.D. 2027-Jul-03 00:00:00.0000, -5.940038712178737E+07, 3.844975741049688E+08, -1.855296705752960E+07,
2461596.500000000, A.D. 2027-Jul-10 00:00:00.0000, -6.965567000886543E+07, 3.840564267204067E+08, -1.862240679978652E+07,
2461603.500000000, A.D. 2027-Jul-17 00:00:00.0000, -7.985434745436776E+07, 3.833027940912803E+08, -1.867669203695893E+07,
2461610.500000000, A.D. 2027-Jul-24 00:00:00.0000, -8.998872384207533E+07, 3.822401703617116E+08, -1.871591898243608E+07,
2461617.500000000, A.D. 2027-Jul-31 00:00:00.0000, -1.000512699633286E+08, 3.808721241558464E+08, -1.874018896319897E+07,
2461624.500000000, A.D. 2027-Aug-07 00:00:00.0000, -1.100346148582844E+08, 3.792022953221508E+08, -1.874960817775483E+07,
2461631.500000000, A.D. 2027-Aug-14 00:00:00.0000, -1.199315397741306E+08, 3.772343931399137E+08, -1.874428722467901E+07,
2461638.500000000, A.D. 2027-Aug-21 00:00:00.0000, -1.297349736273753E+08, 3.749721925933959E+08, -1.872434073193762E+07,
2461645.500000000, A.D. 2027-Aug-28 00:00:00.0000, -1.394379865461614E+08, 3.724195298888625E+08, -1.868988730193104E+07,
2461652.500000000, A.D. 2027-Sep-04 00:00:00.0000, -1.490337826780696E+08, 3.695802996976638E+08, -1.864104945953678E+07,
2461659.500000000, A.D. 2027-Sep-11 00:00:00.0000, -1.585156936569869E+08, 3.664584534427904E+08, -1.857795352893360E+07,
2461666.500000000, A.D. 2027-Sep-18 00:00:00.0000, -1.678771725944637E+08, 3.630579979547002E+08, -1.850072950351109E+07,
2461673.500000000, A.D. 2027-Sep-25 00:00:00.0000, -1.771117883665901E+08, 3.593829943967339E+08, -1.840951093521789E+07,
2461680.500000000, A.D. 2027-Oct-02 00:00:00.0000, -1.862132201213599E+08, 3.554375574682828E+08, -1.830443484719698E+07,
2461687.500000000, A.D. 2027-Oct-09 00:00:00.0000, -1.951752519838143E+08, 3.512258548640315E+08, -1.818564167148836E+07,
2461694.500000000, A.D. 2027-Oct-16 00:00:00.0000, -2.039917678952200E+08, 3.467521069190469E+08, -1.805327522150083E+07,
2461701.500000000, A.D. 2027-Oct-23 00:00:00.0000, -2.126567463256416E+08, 3.420205864201387E+08, -1.790748272300674E+07,
2461708.500000000, A.D. 2027-Oct-30 00:00:00.0000, -2.211642544847767E+08, 3.370356191812848E+08, -1.774841488763618E+07,
2461715.500000000, A.D. 2027-Nov-06 00:00:00.0000, -2.295084431952645E+08, 3.318015865013195E+08, -1.757622582975911E+07,
2461722.500000000, A.D. 2027-Nov-13 00:00:00.0000, -2.376835444134300E+08, 3.263229274208690E+08, -1.739107281441456E+07,
2461729.500000000, A.D. 2027-Nov-20 00:00:00.0000, -2.456838684914361E+08, 3.206041385825673E+08, -1.719311628018583E+07,
2461736.500000000, A.D. 2027-Nov-27 00:00:00.0000, -2.535037995638326E+08, 3.146497746473472E+08, -1.698252004205596E+07,
2461743.500000000, A.D. 2027-Dec-04 00:00:00.0000, -2.611377910859647E+08, 3.084644501763168E+08, -1.675945141419218E+07,
2461750.500000000, A.D. 2027-Dec-11 00:00:00.0000, -2.685803620754554E+08, 3.020528420111911E+08, -1.652408128101256E+07,
2461757.500000000, A.D. 2027-Dec-18 00:00:00.0000, -2.758260937821335E+08, 2.954196918094586E+08, -1.627658416907088E+07,
2461764.500000000, A.D. 2027-Dec-25 00:00:00.0000, -2.828696266362159E+08, 2.885698087279742E+08, -1.601713833353433E+07,
2461771.500000000, A.D. 2028-Jan-01 00:00:00.0000, -2.897056574361302E+08, 2.815080722666506E+08, -1.574592586163568E+07,
$$EOE